<?xml version="1.0" encoding="UTF-8"?>
<ndm xmlns:xsi="http://www.w3.org/2001/XMLSchema-instance" xsi:noNamespaceSchemaLocation="https://sanaregistry.org/r/ndmxml_unqualified/ndmxml-2.0.0-master-2.0.xsd">
<omm id="CCSDS_OMM_VERS" version="2.0">
<header><CREATION_DATE/><ORIGINATOR/></header><body><segment><metadata><OBJECT_NAME>GLOBALSTAR M094</OBJECT_NAME><OBJECT_ID>2013-005C</OBJECT_ID><CENTER_NAME>EARTH</CENTER_NAME><REF_FRAME>TEME</REF_FRAME><TIME_SYSTEM>UTC</TIME_SYSTEM><MEAN_ELEMENT_THEORY>SGP4</MEAN_ELEMENT_THEORY></metadata><data><meanElements><EPOCH>2024-05-23T16:05:42.391392</EPOCH><MEAN_MOTION>12.62266152</MEAN_MOTION><ECCENTRICITY>.0000988</ECCENTRICITY><INCLINATION>51.9965</INCLINATION><RA_OF_ASC_NODE>288.0804</RA_OF_ASC_NODE><ARG_OF_PERICENTER>120.3650</ARG_OF_PERICENTER><MEAN_ANOMALY>239.7314</MEAN_ANOMALY></meanElements><tleParameters><EPHEMERIS_TYPE>0</EPHEMERIS_TYPE><CLASSIFICATION_TYPE>U</CLASSIFICATION_TYPE><NORAD_CAT_ID>39074</NORAD_CAT_ID><ELEMENT_SET_NO>999</ELEMENT_SET_NO><REV_AT_EPOCH>52318</REV_AT_EPOCH><BSTAR>.37684E-4</BSTAR><MEAN_MOTION_DOT>-.97E-6</MEAN_MOTION_DOT><MEAN_MOTION_DDOT>0</MEAN_MOTION_DDOT></tleParameters></data></segment></body></omm>
<omm id="CCSDS_OMM_VERS" version="2.0">
<header><CREATION_DATE/><ORIGINATOR/></header><body><segment><metadata><OBJECT_NAME>GLOBALSTAR M096</OBJECT_NAME><OBJECT_ID>2013-005D</OBJECT_ID><CENTER_NAME>EARTH</CENTER_NAME><REF_FRAME>TEME</REF_FRAME><TIME_SYSTEM>UTC</TIME_SYSTEM><MEAN_ELEMENT_THEORY>SGP4</MEAN_ELEMENT_THEORY></metadata><data><meanElements><EPOCH>2024-05-23T22:06:40.990464</EPOCH><MEAN_MOTION>12.62266010</MEAN_MOTION><ECCENTRICITY>.0001189</ECCENTRICITY><INCLINATION>52.0091</INCLINATION><RA_OF_ASC_NODE>335.5277</RA_OF_ASC_NODE><ARG_OF_PERICENTER>102.1952</ARG_OF_PERICENTER><MEAN_ANOMALY>257.9048</MEAN_ANOMALY></meanElements><tleParameters><EPHEMERIS_TYPE>0</EPHEMERIS_TYPE><CLASSIFICATION_TYPE>U</CLASSIFICATION_TYPE><NORAD_CAT_ID>39075</NORAD_CAT_ID><ELEMENT_SET_NO>999</ELEMENT_SET_NO><REV_AT_EPOCH>52248</REV_AT_EPOCH><BSTAR>.10008E-3</BSTAR><MEAN_MOTION_DOT>-.86E-6</MEAN_MOTION_DOT><MEAN_MOTION_DDOT>0</MEAN_MOTION_DDOT></tleParameters></data></segment></body></omm>
<omm id="CCSDS_OMM_VERS" version="2.0">
<header><CREATION_DATE/><ORIGINATOR/></header><body><segment><metadata><OBJECT_NAME>GLOBALSTAR M078</OBJECT_NAME><OBJECT_ID>2013-005E</OBJECT_ID><CENTER_NAME>EARTH</CENTER_NAME><REF_FRAME>TEME</REF_FRAME><TIME_SYSTEM>UTC</TIME_SYSTEM><MEAN_ELEMENT_THEORY>SGP4</MEAN_ELEMENT_THEORY></metadata><data><meanElements><EPOCH>2024-05-24T03:11:23.440416</EPOCH><MEAN_MOTION>12.62276090</MEAN_MOTION><ECCENTRICITY>.0001541</ECCENTRICITY><INCLINATION>51.9888</INCLINATION><RA_OF_ASC_NODE>59.9235</RA_OF_ASC_NODE><ARG_OF_PERICENTER>49.9647</ARG_OF_PERICENTER><MEAN_ANOMALY>310.1355</MEAN_ANOMALY></meanElements><tleParameters><EPHEMERIS_TYPE>0</EPHEMERIS_TYPE><CLASSIFICATION_TYPE>U</CLASSIFICATION_TYPE><NORAD_CAT_ID>39076</NORAD_CAT_ID><ELEMENT_SET_NO>999</ELEMENT_SET_NO><REV_AT_EPOCH>52099</REV_AT_EPOCH><BSTAR>.56303E-3</BSTAR><MEAN_MOTION_DOT>-.3E-7</MEAN_MOTION_DOT><MEAN_MOTION_DDOT>0</MEAN_MOTION_DDOT></tleParameters></data></segment></body></omm>
<omm id="CCSDS_OMM_VERS" version="2.0">
<header><CREATION_DATE/><ORIGINATOR/></header><body><segment><metadata><OBJECT_NAME>GLOBALSTAR M095</OBJECT_NAME><OBJECT_ID>2013-005F</OBJECT_ID><CENTER_NAME>EARTH</CENTER_NAME><REF_FRAME>TEME</REF_FRAME><TIME_SYSTEM>UTC</TIME_SYSTEM><MEAN_ELEMENT_THEORY>SGP4</MEAN_ELEMENT_THEORY></metadata><data><meanElements><EPOCH>2024-05-23T03:06:00.893664</EPOCH><MEAN_MOTION>12.62266391</MEAN_MOTION><ECCENTRICITY>.0001304</ECCENTRICITY><INCLINATION>51.9815</INCLINATION><RA_OF_ASC_NODE>60.3652</RA_OF_ASC_NODE><ARG_OF_PERICENTER>68.7327</ARG_OF_PERICENTER><MEAN_ANOMALY>291.3679</MEAN_ANOMALY></meanElements><tleParameters><EPHEMERIS_TYPE>0</EPHEMERIS_TYPE><CLASSIFICATION_TYPE>U</CLASSIFICATION_TYPE><NORAD_CAT_ID>39077</NORAD_CAT_ID><ELEMENT_SET_NO>999</ELEMENT_SET_NO><REV_AT_EPOCH>52087</REV_AT_EPOCH><BSTAR>.58498E-4</BSTAR><MEAN_MOTION_DOT>-.93E-6</MEAN_MOTION_DOT><MEAN_MOTION_DDOT>0</MEAN_MOTION_DDOT></tleParameters></data></segment></body></omm>
<omm id="CCSDS_OMM_VERS" version="2.0">
<header><CREATION_DATE/><ORIGINATOR/></header><body><segment><metadata><OBJECT_NAME>GLOBALSTAR M087</OBJECT_NAME><OBJECT_ID>2022-064A</OBJECT_ID><CENTER_NAME>EARTH</CENTER_NAME><REF_FRAME>TEME</REF_FRAME><TIME_SYSTEM>UTC</TIME_SYSTEM><MEAN_ELEMENT_THEORY>SGP4</MEAN_ELEMENT_THEORY></metadata><data><meanElements><EPOCH>2024-05-23T17:58:47.456832</EPOCH><MEAN_MOTION>13.37574686</MEAN_MOTION><ECCENTRICITY>.0008655</ECCENTRICITY><INCLINATION>51.9761</INCLINATION><RA_OF_ASC_NODE>293.5957</RA_OF_ASC_NODE><ARG_OF_PERICENTER>303.8804</ARG_OF_PERICENTER><MEAN_ANOMALY>56.1272</MEAN_ANOMALY></meanElements><tleParameters><EPHEMERIS_TYPE>0</EPHEMERIS_TYPE><CLASSIFICATION_TYPE>U</CLASSIFICATION_TYPE><NORAD_CAT_ID>52888</NORAD_CAT_ID><ELEMENT_SET_NO>999</ELEMENT_SET_NO><REV_AT_EPOCH>9425</REV_AT_EPOCH><BSTAR>.87597E-4</BSTAR><MEAN_MOTION_DOT>-.82E-6</MEAN_MOTION_DOT><MEAN_MOTION_DDOT>0</MEAN_MOTION_DDOT></tleParameters></data></segment></body></omm>
</ndm>
